ORBCOMM FM33            
1 25983U 99065D   24200.80792299  .00003390  00000+0  11570-2 0  9990
2 25983  45.0276 141.6764 0007233 190.0045 170.0661 14.37966571288116
ORBCOMM FM36            
1 25984U 99065E   24200.39211662  .00002510  00000+0  90631-3 0  9994
2 25984  45.0378 230.3189 0002175  12.0374 348.0526 14.35877341286406
ORBCOMM FM35            
1 25985U 99065F   24200.45625910  .00001699  00000+0  63543-3 0  9996
2 25985  45.0386 232.9091 0003286 208.0511 152.0160 14.35378305286807
ORBCOMM FM34            
1 25986U 99065G   24200.77605004  .00001864  00000+0  69283-3 0  9995
2 25986  45.0382 231.9474 0001426 135.3033 224.7929 14.35357726287000
ORBCOMM FM38            
1 33060U 08031A   24200.87144292  .00004690  00000+0  67138-3 0  9995
2 33060  48.4408 100.0738 0005219  50.8244 309.3133 14.77995184865377
ORBCOMM FM41            
1 33061U 08031B   24200.48861196  .00004565  00000+0  65841-3 0  9992
2 33061  48.4442 108.6732 0004461  33.4905 136.5582 14.77715467864824
ORBCOMM FM29            
1 33062U 08031C   24200.27079956  .00004797  00000+0  69123-3 0  9999
2 33062  48.4392 117.7398 0006365  30.8773 106.9324 14.77663188864701
ORBCOMM FM39            
1 33063U 08031D   24200.52901318  .00004472  00000+0  66241-3 0  9992
2 33063  48.4398 137.5710 0007487   6.1174 353.9830 14.76604928864435
