<?xml version="1.0" encoding="UTF-8"?>
<ndm xmlns:xsi="http://www.w3.org/2001/XMLSchema-instance" xsi:noNamespaceSchemaLocation="https://sanaregistry.org/r/ndmxml_unqualified/ndmxml-2.0.0-master-2.0.xsd">
<omm id="CCSDS_OMM_VERS" version="2.0">
<header><CREATION_DATE/><ORIGINATOR/></header><body><segment><metadata><OBJECT_NAME>ORBCOMM FM33</OBJECT_NAME><OBJECT_ID>1999-065D</OBJECT_ID><CENTER_NAME>EARTH</CENTER_NAME><REF_FRAME>TEME</REF_FRAME><TIME_SYSTEM>UTC</TIME_SYSTEM><MEAN_ELEMENT_THEORY>SGP4</MEAN_ELEMENT_THEORY></metadata><data><meanElements><EPOCH>2024-07-18T19:23:24.546336</EPOCH><MEAN_MOTION>14.37966571</MEAN_MOTION><ECCENTRICITY>.0007233</ECCENTRICITY><INCLINATION>45.0276</INCLINATION><RA_OF_ASC_NODE>141.6764</RA_OF_ASC_NODE><ARG_OF_PERICENTER>190.0045</ARG_OF_PERICENTER><MEAN_ANOMALY>170.0661</MEAN_ANOMALY></meanElements><tleParameters><EPHEMERIS_TYPE>0</EPHEMERIS_TYPE><CLASSIFICATION_TYPE>U</CLASSIFICATION_TYPE><NORAD_CAT_ID>25983</NORAD_CAT_ID><ELEMENT_SET_NO>999</ELEMENT_SET_NO><REV_AT_EPOCH>28811</REV_AT_EPOCH><BSTAR>.1157E-2</BSTAR><MEAN_MOTION_DOT>.339E-4</MEAN_MOTION_DOT><MEAN_MOTION_DDOT>0</MEAN_MOTION_DDOT></tleParameters></data></segment></body></omm>
<omm id="CCSDS_OMM_VERS" version="2.0">
<header><CREATION_DATE/><ORIGINATOR/></header><body><segment><metadata><OBJECT_NAME>ORBCOMM FM36</OBJECT_NAME><OBJECT_ID>1999-065E</OBJECT_ID><CENTER_NAME>EARTH</CENTER_NAME><REF_FRAME>TEME</REF_FRAME><TIME_SYSTEM>UTC</TIME_SYSTEM><MEAN_ELEMENT_THEORY>SGP4</MEAN_ELEMENT_THEORY></metadata><data><meanElements><EPOCH>2024-07-18T09:24:38.875968</EPOCH><MEAN_MOTION>14.35877341</MEAN_MOTION><ECCENTRICITY>.0002175</ECCENTRICITY><INCLINATION>45.0378</INCLINATION><RA_OF_ASC_NODE>230.3189</RA_OF_ASC_NODE><ARG_OF_PERICENTER>12.0374</ARG_OF_PERICENTER><MEAN_ANOMALY>348.0526</MEAN_ANOMALY></meanElements><tleParameters><EPHEMERIS_TYPE>0</EPHEMERIS_TYPE><CLASSIFICATION_TYPE>U</CLASSIFICATION_TYPE><NORAD_CAT_ID>25984</NORAD_CAT_ID><ELEMENT_SET_NO>999</ELEMENT_SET_NO><REV_AT_EPOCH>28640</REV_AT_EPOCH><BSTAR>.90631E-3</BSTAR><MEAN_MOTION_DOT>.251E-4</MEAN_MOTION_DOT><MEAN_MOTION_DDOT>0</MEAN_MOTION_DDOT></tleParameters></data></segment></body></omm>
<omm id="CCSDS_OMM_VERS" version="2.0">
<header><CREATION_DATE/><ORIGINATOR/></header><body><segment><metadata><OBJECT_NAME>ORBCOMM FM35</OBJECT_NAME><OBJECT_ID>1999-065F</OBJECT_ID><CENTER_NAME>EARTH</CENTER_NAME><REF_FRAME>TEME</REF_FRAME><TIME_SYSTEM>UTC</TIME_SYSTEM><MEAN_ELEMENT_THEORY>SGP4</MEAN_ELEMENT_THEORY></metadata><data><meanElements><EPOCH>2024-07-18T10:57:00.786240</EPOCH><MEAN_MOTION>14.35378305</MEAN_MOTION><ECCENTRICITY>.0003286</ECCENTRICITY><INCLINATION>45.0386</INCLINATION><RA_OF_ASC_NODE>232.9091</RA_OF_ASC_NODE><ARG_OF_PERICENTER>208.0511</ARG_OF_PERICENTER><MEAN_ANOMALY>152.0160</MEAN_ANOMALY></meanElements><tleParameters><EPHEMERIS_TYPE>0</EPHEMERIS_TYPE><CLASSIFICATION_TYPE>U</CLASSIFICATION_TYPE><NORAD_CAT_ID>25985</NORAD_CAT_ID><ELEMENT_SET_NO>999</ELEMENT_SET_NO><REV_AT_EPOCH>28680</REV_AT_EPOCH><BSTAR>.63543E-3</BSTAR><MEAN_MOTION_DOT>.1699E-4</MEAN_MOTION_DOT><MEAN_MOTION_DDOT>0</MEAN_MOTION_DDOT></tleParameters></data></segment></body></omm>
<omm id="CCSDS_OMM_VERS" version="2.0">
<header><CREATION_DATE/><ORIGINATOR/></header><body><segment><metadata><OBJECT_NAME>ORBCOMM FM34</OBJECT_NAME><OBJECT_ID>1999-065G</OBJECT_ID><CENTER_NAME>EARTH</CENTER_NAME><REF_FRAME>TEME</REF_FRAME><TIME_SYSTEM>UTC</TIME_SYSTEM><MEAN_ELEMENT_THEORY>SGP4</MEAN_ELEMENT_THEORY></metadata><data><meanElements><EPOCH>2024-07-18T18:37:30.723456</EPOCH><MEAN_MOTION>14.35357726</MEAN_MOTION><ECCENTRICITY>.0001426</ECCENTRICITY><INCLINATION>45.0382</INCLINATION><RA_OF_ASC_NODE>231.9474</RA_OF_ASC_NODE><ARG_OF_PERICENTER>135.3033</ARG_OF_PERICENTER><MEAN_ANOMALY>224.7929</MEAN_ANOMALY></meanElements><tleParameters><EPHEMERIS_TYPE>0</EPHEMERIS_TYPE><CLASSIFICATION_TYPE>U</CLASSIFICATION_TYPE><NORAD_CAT_ID>25986</NORAD_CAT_ID><ELEMENT_SET_NO>999</ELEMENT_SET_NO><REV_AT_EPOCH>28700</REV_AT_EPOCH><BSTAR>.69283E-3</BSTAR><MEAN_MOTION_DOT>.1864E-4</MEAN_MOTION_DOT><MEAN_MOTION_DDOT>0</MEAN_MOTION_DDOT></tleParameters></data></segment></body></omm>
<omm id="CCSDS_OMM_VERS" version="2.0">
<header><CREATION_DATE/><ORIGINATOR/></header><body><segment><metadata><OBJECT_NAME>ORBCOMM FM38</OBJECT_NAME><OBJECT_ID>2008-031A</OBJECT_ID><CENTER_NAME>EARTH</CENTER_NAME><REF_FRAME>TEME</REF_FRAME><TIME_SYSTEM>UTC</TIME_SYSTEM><MEAN_ELEMENT_THEORY>SGP4</MEAN_ELEMENT_THEORY></metadata><data><meanElements><EPOCH>2024-07-18T20:54:52.668288</EPOCH><MEAN_MOTION>14.77995184</MEAN_MOTION><ECCENTRICITY>.0005219</ECCENTRICITY><INCLINATION>48.4408</INCLINATION><RA_OF_ASC_NODE>100.0738</RA_OF_ASC_NODE><ARG_OF_PERICENTER>50.8244</ARG_OF_PERICENTER><MEAN_ANOMALY>309.3133</MEAN_ANOMALY></meanElements><tleParameters><EPHEMERIS_TYPE>0</EPHEMERIS_TYPE><CLASSIFICATION_TYPE>U</CLASSIFICATION_TYPE><NORAD_CAT_ID>33060</NORAD_CAT_ID><ELEMENT_SET_NO>999</ELEMENT_SET_NO><REV_AT_EPOCH>86537</REV_AT_EPOCH><BSTAR>.67138E-3</BSTAR><MEAN_MOTION_DOT>.469E-4</MEAN_MOTION_DOT><MEAN_MOTION_DDOT>0</MEAN_MOTION_DDOT></tleParameters></data></segment></body></omm>
<omm id="CCSDS_OMM_VERS" version="2.0">
<header><CREATION_DATE/><ORIGINATOR/></header><body><segment><metadata><OBJECT_NAME>ORBCOMM FM41</OBJECT_NAME><OBJECT_ID>2008-031B</OBJECT_ID><CENTER_NAME>EARTH</CENTER_NAME><REF_FRAME>TEME</REF_FRAME><TIME_SYSTEM>UTC</TIME_SYSTEM><MEAN_ELEMENT_THEORY>SGP4</MEAN_ELEMENT_THEORY></metadata><data><meanElements><EPOCH>2024-07-18T11:43:36.073344</EPOCH><MEAN_MOTION>14.77715467</MEAN_MOTION><ECCENTRICITY>.0004461</ECCENTRICITY><INCLINATION>48.4442</INCLINATION><RA_OF_ASC_NODE>108.6732</RA_OF_ASC_NODE><ARG_OF_PERICENTER>33.4905</ARG_OF_PERICENTER><MEAN_ANOMALY>136.5582</MEAN_ANOMALY></meanElements><tleParameters><EPHEMERIS_TYPE>0</EPHEMERIS_TYPE><CLASSIFICATION_TYPE>U</CLASSIFICATION_TYPE><NORAD_CAT_ID>33061</NORAD_CAT_ID><ELEMENT_SET_NO>999</ELEMENT_SET_NO><REV_AT_EPOCH>86482</REV_AT_EPOCH><BSTAR>.65841E-3</BSTAR><MEAN_MOTION_DOT>.4565E-4</MEAN_MOTION_DOT><MEAN_MOTION_DDOT>0</MEAN_MOTION_DDOT></tleParameters></data></segment></body></omm>
<omm id="CCSDS_OMM_VERS" version="2.0">
<header><CREATION_DATE/><ORIGINATOR/></header><body><segment><metadata><OBJECT_NAME>ORBCOMM FM29</OBJECT_NAME><OBJECT_ID>2008-031C</OBJECT_ID><CENTER_NAME>EARTH</CENTER_NAME><REF_FRAME>TEME</REF_FRAME><TIME_SYSTEM>UTC</TIME_SYSTEM><MEAN_ELEMENT_THEORY>SGP4</MEAN_ELEMENT_THEORY></metadata><data><meanElements><EPOCH>2024-07-18T06:29:57.081984</EPOCH><MEAN_MOTION>14.77663188</MEAN_MOTION><ECCENTRICITY>.0006365</ECCENTRICITY><INCLINATION>48.4392</INCLINATION><RA_OF_ASC_NODE>117.7398</RA_OF_ASC_NODE><ARG_OF_PERICENTER>30.8773</ARG_OF_PERICENTER><MEAN_ANOMALY>106.9324</MEAN_ANOMALY></meanElements><tleParameters><EPHEMERIS_TYPE>0</EPHEMERIS_TYPE><CLASSIFICATION_TYPE>U</CLASSIFICATION_TYPE><NORAD_CAT_ID>33062</NORAD_CAT_ID><ELEMENT_SET_NO>999</ELEMENT_SET_NO><REV_AT_EPOCH>86470</REV_AT_EPOCH><BSTAR>.69123E-3</BSTAR><MEAN_MOTION_DOT>.4797E-4</MEAN_MOTION_DOT><MEAN_MOTION_DDOT>0</MEAN_MOTION_DDOT></tleParameters></data></segment></body></omm>
<omm id="CCSDS_OMM_VERS" version="2.0">
<header><CREATION_DATE/><ORIGINATOR/></header><body><segment><metadata><OBJECT_NAME>ORBCOMM FM39</OBJECT_NAME><OBJECT_ID>2008-031D</OBJECT_ID><CENTER_NAME>EARTH</CENTER_NAME><REF_FRAME>TEME</REF_FRAME><TIME_SYSTEM>UTC</TIME_SYSTEM><MEAN_ELEMENT_THEORY>SGP4</MEAN_ELEMENT_THEORY></metadata><data><meanElements><EPOCH>2024-07-18T12:41:46.738752</EPOCH><MEAN_MOTION>14.76604928</MEAN_MOTION><ECCENTRICITY>.0007487</ECCENTRICITY><INCLINATION>48.4398</INCLINATION><RA_OF_ASC_NODE>137.5710</RA_OF_ASC_NODE><ARG_OF_PERICENTER>6.1174</ARG_OF_PERICENTER><MEAN_ANOMALY>353.9830</MEAN_ANOMALY></meanElements><tleParameters><EPHEMERIS_TYPE>0</EPHEMERIS_TYPE><CLASSIFICATION_TYPE>U</CLASSIFICATION_TYPE><NORAD_CAT_ID>33063</NORAD_CAT_ID><ELEMENT_SET_NO>999</ELEMENT_SET_NO><REV_AT_EPOCH>86443</REV_AT_EPOCH><BSTAR>.66241E-3</BSTAR><MEAN_MOTION_DOT>.4472E-4</MEAN_MOTION_DOT><MEAN_MOTION_DDOT>0</MEAN_MOTION_DDOT></tleParameters></data></segment></body></omm>

</ndm>
